*******************************************************************************
JPL/HORIZONS              3266 Bernardus (1978 PA)         2023-Sep-04 11:22:38
Rec #:    3266 (+COV) Soln.date: 2023-Aug-23_08:35:11   # obs: 6284 (1978-2023)
 
IAU76/J2000 helio. ecliptic osc. elements (au, days, deg., period=Julian yrs):
 
  EPOCH=  2457781.5 ! 2017-Jan-28.00 (TDB)         Residual RMS= .24311
   EC= .1101194282493588   QR= 1.698370407929155   TP= 2458250.6551869488
   OM= 110.6445244654671   W=  255.940582094926    IN= 26.37284513052451
   A= 1.908537462041666    MA= 184.6242413914122   ADIST= 2.118704516154176
   PER= 2.63669            N= .373811829           ANGMOM= .023620142
   DAN= 1.93722            DDN= 1.83627            L= 5.0276908
   B= -25.5249429          MOID= .78621399         TP= 2018-May-12.1551869488
 
Asteroid physical parameters (km, seconds, rotational period in hours):
   GM= n.a.                RAD= 3.796              ROTPER= 10.757
   H= 12.97                G= .150                 B-V= n.a.
                           ALBEDO= .255            STYP= n.a.

ASTEROID comments: 
1: soln ref.= JPL#59, OCC=0
2: source=ORB
*******************************************************************************


*******************************************************************************
Ephemeris / API_USER Mon Sep  4 11:22:38 2023 Pasadena, USA      / Horizons
*******************************************************************************
Target body name: 3266 Bernardus (1978 PA)        {source: JPL#59}
Center body name: Solar System Barycenter (0)     {source: DE441}
Center-site name: BODY CENTER
*******************************************************************************
Start time      : A.D. 2023-Aug-12 00:00:00.0000 TDB
Stop  time      : A.D. 2023-Aug-13 00:00:00.0000 TDB
Step-size       : 2880 minutes
*******************************************************************************
Center geodetic : 0.0, 0.0, 0.0                   {E-lon(deg),Lat(deg),Alt(km)}
Center cylindric: 0.0, 0.0, 0.0                   {E-lon(deg),Dxy(km),Dz(km)}
Center radii    : (undefined)
Small perturbers: Yes                             {source: SB441-N16}
Output units    : KM-S
Calendar mode   : Mixed Julian/Gregorian
Output type     : GEOMETRIC cartesian states
Output format   : 2 (position and velocity)
Reference frame : Ecliptic of J2000.0
*******************************************************************************
Initial IAU76/J2000 heliocentric ecliptic osculating elements (au, days, deg.):
  EPOCH=  2457781.5 ! 2017-Jan-28.00 (TDB)         Residual RMS= .24311        
   EC= .1101194282493588   QR= 1.698370407929155   TP= 2458250.6551869488      
   OM= 110.6445244654671   W=  255.940582094926    IN= 26.37284513052451       
  Equivalent ICRF heliocentric cartesian coordinates (au, au/d):
   X=-1.880961872313270E+00  Y=-6.460368539676855E-01  Z= 7.288175257956860E-01
  VX= 2.271242507270728E-03 VY=-1.032437811133213E-02 VZ=-3.550841668873924E-03
Asteroid physical parameters (km, seconds, rotational period in hours):        
   GM= n.a.                RAD= 3.796              ROTPER= 10.757              
   H= 12.97                G= .150                 B-V= n.a.                   
                           ALBEDO= .255            STYP= n.a.                  
*******************************************************************************
JDTDB
   X     Y     Z
   VX    VY    VZ
*******************************************************************************
$$SOE
2460168.500000000 = A.D. 2023-Aug-12 00:00:00.0000 TDB 
 X = 2.288838384143538E+08 Y = 3.471717280278198E+06 Z =-1.074456781965336E+08
 VX=-2.049566889766433E+00 VY= 2.376550244355876E+01 VZ=-3.196901424604018E+00
$$EOE
*******************************************************************************
 
TIME

  Barycentric Dynamical Time ("TDB" or T_eph) output was requested. This
continuous coordinate time is equivalent to the relativistic proper time
of a clock at rest in a reference frame co-moving with the solar system
barycenter but outside the system's gravity well. It is the independent
variable in the solar system relativistic equations of motion.

  TDB runs at a uniform rate of one SI second per second and is independent
of irregularities in Earth's rotation.
 
CALENDAR SYSTEM

  Mixed calendar mode was active such that calendar dates after AD 1582-Oct-15
(if any) are in the modern Gregorian system. Dates prior to 1582-Oct-5 (if any)
are in the Julian calendar system, which is automatically extended for dates
prior to its adoption on 45-Jan-1 BC.  The Julian calendar is useful for
matching historical dates. The Gregorian calendar more accurately corresponds
to the Earth's orbital motion and seasons. A "Gregorian-only" calendar mode is
available if such physical events are the primary interest.

REFERENCE FRAME AND COORDINATES

  Ecliptic at the standard reference epoch

    Reference epoch: J2000.0
    X-Y plane: adopted Earth orbital plane at the reference epoch
               Note: IAU76 obliquity of 84381.448 arcseconds wrt ICRF X-Y plane
    X-axis   : ICRF
    Z-axis   : perpendicular to the X-Y plane in the directional (+ or -) sense
               of Earth's north pole at the reference epoch.

  Symbol meaning:

    JDTDB    Julian Day Number, Barycentric Dynamical Time
      X      X-component of position vector (km)
      Y      Y-component of position vector (km)
      Z      Z-component of position vector (km)
      VX     X-component of velocity vector (km/sec)                           
      VY     Y-component of velocity vector (km/sec)                           
      VZ     Z-component of velocity vector (km/sec)                           

ABERRATIONS AND CORRECTIONS

 Geometric state vectors have NO corrections or aberrations applied.

Computations by ...

    Solar System Dynamics Group, Horizons On-Line Ephemeris System
    4800 Oak Grove Drive, Jet Propulsion Laboratory
    Pasadena, CA  91109   USA

    General site: https://ssd.jpl.nasa.gov/
    Mailing list: https://ssd.jpl.nasa.gov/email_list.html
    System news : https://ssd.jpl.nasa.gov/horizons/news.html
    User Guide  : https://ssd.jpl.nasa.gov/horizons/manual.html
    Connect     : browser        https://ssd.jpl.nasa.gov/horizons/app.html#/x
                  API            https://ssd-api.jpl.nasa.gov/doc/horizons.html
                  command-line   telnet ssd.jpl.nasa.gov 6775
                  e-mail/batch   https://ssd.jpl.nasa.gov/ftp/ssd/hrzn_batch.txt
                  scripts        https://ssd.jpl.nasa.gov/ftp/ssd/SCRIPTS
    Author      : Jon.D.Giorgini@jpl.nasa.gov
*******************************************************************************
